NOAA 15                 
1 25338U 98030A   24207.18004561  .00000456  00000+0  20651-3 0  9992
2 25338  98.5672 233.5113 0009747 207.6117 152.4547 14.26638239362855
